{
  "type": "FeatureCollection",
  "features": [
    {
      "type": "Feature",
      "properties": {
        "norad_id": 66460,
        "name": "STARLINK-35424",
        "group": "last-30-days",
        "lat": 39.735510817500185,
        "lon": -129.57640395021946,
        "alt_km": 409.97537487566933,
        "timestamp": "2025-12-05T11:32:54.809068+00:00",
        "meta_object_name": "STARLINK-35424",
        "meta_object_id": "2025-262E",
        "meta_epoch": "2025-12-04T18:00:02.000160",
        "meta_mean_motion": 15.53901383,
        "meta_eccentricity": 0.0001572,
        "meta_inclination": 42.9994,
        "meta_ra_of_asc_node": 117.8471,
        "meta_arg_of_pericenter": 279.7858,
        "meta_mean_anomaly": 59.8344,
        "meta_ephemeris_type": 0,
        "meta_classification_type": "U",
        "meta_norad_cat_id": 66460,
        "meta_element_set_no": 999,
        "meta_rev_at_epoch": 435,
        "meta_bstar": -0.036008,
        "meta_mean_motion_dot": -0.02115255,
        "meta_mean_motion_ddot": 0,
        "tle_line1": "1 66460U 25262E   25338.75002315 -.02115255  00000+0 -36008-1 0  9993",
        "tle_line2": "2 66460  42.9994 117.8471 0001572 279.7858  59.8344 15.53901383  4354"
      },
      "geometry": {
        "type": "Point",
        "coordinates": [
          -129.57640395021946,
          39.735510817500185
        ]
      }
    },
    {
      "type": "Feature",
      "properties": {
        "norad_id": 66461,
        "name": "STARLINK-35132",
        "group": "last-30-days",
        "lat": 39.1248752907063,
        "lon": -127.24439132168449,
        "alt_km": 410.05442586449044,
        "timestamp": "2025-12-05T11:32:54.809078+00:00",
        "meta_object_name": "STARLINK-35132",
        "meta_object_id": "2025-262F",
        "meta_epoch": "2025-12-04T18:00:02.000160",
        "meta_mean_motion": 15.53907237,
        "meta_eccentricity": 0.0001535,
        "meta_inclination": 42.9993,
        "meta_ra_of_asc_node": 117.8421,
        "meta_arg_of_pericenter": 272.9476,
        "meta_mean_anomaly": 68.5903,
        "meta_ephemeris_type": 0,
        "meta_classification_type": "U",
        "meta_norad_cat_id": 66461,
        "meta_element_set_no": 999,
        "meta_rev_at_epoch": 435,
        "meta_bstar": -0.036218,
        "meta_mean_motion_dot": -0.02126597,
        "meta_mean_motion_ddot": 0,
        "tle_line1": "1 66461U 25262F   25338.75002315 -.02126597  00000+0 -36218-1 0  9998",
        "tle_line2": "2 66461  42.9993 117.8421 0001535 272.9476  68.5903 15.53907237  4351"
      },
      "geometry": {
        "type": "Point",
        "coordinates": [
          -127.24439132168449,
          39.1248752907063
        ]
      }
    },
    {
      "type": "Feature",
      "properties": {
        "norad_id": 66462,
        "name": "STARLINK-35499",
        "group": "last-30-days",
        "lat": 38.468655341539936,
        "lon": -124.95467570902338,
        "alt_km": 410.2993798485204,
        "timestamp": "2025-12-05T11:32:54.809089+00:00",
        "meta_object_name": "STARLINK-35499",
        "meta_object_id": "2025-262G",
        "meta_epoch": "2025-12-04T18:00:02.000160",
        "meta_mean_motion": 15.53917224,
        "meta_eccentricity": 0.0001651,
        "meta_inclination": 42.9992,
        "meta_ra_of_asc_node": 117.8373,
        "meta_arg_of_pericenter": 276.2528,
        "meta_mean_anomaly": 67.1966,
        "meta_ephemeris_type": 0,
        "meta_classification_type": "U",
        "meta_norad_cat_id": 66462,
        "meta_element_set_no": 999,
        "meta_rev_at_epoch": 435,
        "meta_bstar": -0.036512,
        "meta_mean_motion_dot": -0.02142679,
        "meta_mean_motion_ddot": 0,
        "tle_line1": "1 66462U 25262G   25338.75002315 -.02142679  00000+0 -36512-1 0  9995",
        "tle_line2": "2 66462  42.9992 117.8373 0001651 276.2528  67.1966 15.53917224  4352"
      },
      "geometry": {
        "type": "Point",
        "coordinates": [
          -124.95467570902338,
          38.468655341539936
        ]
      }
    },
    {
      "type": "Feature",
      "properties": {
        "norad_id": 66463,
        "name": "STARLINK-35463",
        "group": "last-30-days",
        "lat": 37.013028251134166,
        "lon": -120.46464303804991,
        "alt_km": 410.45405723912336,
        "timestamp": "2025-12-05T11:32:54.809100+00:00",
        "meta_object_name": "STARLINK-35463",
        "meta_object_id": "2025-262H",
        "meta_epoch": "2025-12-04T18:00:02.000160",
        "meta_mean_motion": 15.53910115,
        "meta_eccentricity": 0.0001643,
        "meta_inclination": 42.9996,
        "meta_ra_of_asc_node": 117.8275,
        "meta_arg_of_pericenter": 274.0915,
        "meta_mean_anomaly": 73.1968,
        "meta_ephemeris_type": 0,
        "meta_classification_type": "U",
        "meta_norad_cat_id": 66463,
        "meta_element_set_no": 999,
        "meta_rev_at_epoch": 435,
        "meta_bstar": -0.036334,
        "meta_mean_motion_dot": -0.02132909,
        "meta_mean_motion_ddot": 0,
        "tle_line1": "1 66463U 25262H   25338.75002315 -.02132909  00000+0 -36334-1 0  9993",
        "tle_line2": "2 66463  42.9996 117.8275 0001643 274.0915  73.1968 15.53910115  4356"
      },
      "geometry": {
        "type": "Point",
        "coordinates": [
          -120.46464303804991,
          37.013028251134166
        ]
      }
    },
    {
      "type": "Feature",
      "properties": {
        "norad_id": 66464,
        "name": "STARLINK-35435",
        "group": "last-30-days",
        "lat": 37.75965698903113,
        "lon": -122.67907205188027,
        "alt_km": 410.29403369490046,
        "timestamp": "2025-12-05T11:32:54.809110+00:00",
        "meta_object_name": "STARLINK-35435",
        "meta_object_id": "2025-262J",
        "meta_epoch": "2025-12-04T18:00:02.000160",
        "meta_mean_motion": 15.53909686,
        "meta_eccentricity": 0.0001559,
        "meta_inclination": 42.9996,
        "meta_ra_of_asc_node": 117.8323,
        "meta_arg_of_pericenter": 275.3683,
        "meta_mean_anomaly": 70.0022,
        "meta_ephemeris_type": 0,
        "meta_classification_type": "U",
        "meta_norad_cat_id": 66464,
        "meta_element_set_no": 999,
        "meta_rev_at_epoch": 435,
        "meta_bstar": -0.036295,
        "meta_mean_motion_dot": -0.02130761,
        "meta_mean_motion_ddot": 0,
        "tle_line1": "1 66464U 25262J   25338.75002315 -.02130761  00000+0 -36295-1 0  9994",
        "tle_line2": "2 66464  42.9996 117.8323 0001559 275.3683  70.0022 15.53909686  4351"
      },
      "geometry": {
        "type": "Point",
        "coordinates": [
          -122.67907205188027,
          37.75965698903113
        ]
      }
    },
    {
      "type": "Feature",
      "properties": {
        "norad_id": 66465,
        "name": "STARLINK-35448",
        "group": "last-30-days",
        "lat": 35.39847059815522,
        "lon": -116.16370388698854,
        "alt_km": 410.68289797135367,
        "timestamp": "2025-12-05T11:32:54.809120+00:00",
        "meta_object_name": "STARLINK-35448",
        "meta_object_id": "2025-262K",
        "meta_epoch": "2025-12-04T18:00:02.000160",
        "meta_mean_motion": 15.539165,
        "meta_eccentricity": 0.0001545,
        "meta_inclination": 42.9998,
        "meta_ra_of_asc_node": 117.8182,
        "meta_arg_of_pericenter": 278.9498,
        "meta_mean_anomaly": 72.1684,
        "meta_ephemeris_type": 0,
        "meta_classification_type": "U",
        "meta_norad_cat_id": 66465,
        "meta_element_set_no": 999,
        "meta_rev_at_epoch": 435,
        "meta_bstar": -0.036487,
        "meta_mean_motion_dot": -0.02141243,
        "meta_mean_motion_ddot": 0,
        "tle_line1": "1 66465U 25262K   25338.75002315 -.02141243  00000+0 -36487-1 0  9995",
        "tle_line2": "2 66465  42.9998 117.8182 0001545 278.9498  72.1684 15.53916500  4355"
      },
      "geometry": {
        "type": "Point",
        "coordinates": [
          -116.16370388698854,
          35.39847059815522
        ]
      }
    },
    {
      "type": "Feature",
      "properties": {
        "norad_id": 66466,
        "name": "STARLINK-35388",
        "group": "last-30-days",
        "lat": 34.53247798666227,
        "lon": -114.07637220296047,
        "alt_km": 410.794453688708,
        "timestamp": "2025-12-05T11:32:54.809130+00:00",
        "meta_object_name": "STARLINK-35388",
        "meta_object_id": "2025-262L",
        "meta_epoch": "2025-12-04T18:00:02.000160",
        "meta_mean_motion": 15.53913169,
        "meta_eccentricity": 0.0001574,
        "meta_inclination": 42.9993,
        "meta_ra_of_asc_node": 117.812,
        "meta_arg_of_pericenter": 277.1821,
        "meta_mean_anomaly": 75.8548,
        "meta_ephemeris_type": 0,
        "meta_classification_type": "U",
        "meta_norad_cat_id": 66466,
        "meta_element_set_no": 999,
        "meta_rev_at_epoch": 435,
        "meta_bstar": -0.036395,
        "meta_mean_motion_dot": -0.02136244,
        "meta_mean_motion_ddot": 0,
        "tle_line1": "1 66466U 25262L   25338.75002315 -.02136244  00000+0 -36395-1 0  9999",
        "tle_line2": "2 66466  42.9993 117.8120 0001574 277.1821  75.8548 15.53913169  4353"
      },
      "geometry": {
        "type": "Point",
        "coordinates": [
          -114.07637220296047,
          34.53247798666227
        ]
      }
    }
  ]
}